[{"OBJECT_NAME":"STARLINK-32096","OBJECT_ID":"2024-086S","EPOCH":"2026-03-09T08:52:55.696512","MEAN_MOTION":15.27574249,"ECCENTRICITY":0.00012315,"INCLINATION":43.0042,"RA_OF_ASC_NODE":61.6649,"ARG_OF_PERICENTER":239.2604,"MEAN_ANOMALY":120.8127,"EPHEMERIS_TYPE":0,"CLASSIFICATION_TYPE":"U","NORAD_CAT_ID":59698,"ELEMENT_SET_NO":999,"REV_AT_EPOCH":10406,"BSTAR":-2.5208181e-5,"MEAN_MOTION_DOT":-9.56e-6,"MEAN_MOTION_DDOT":0},{"OBJECT_NAME":"CZ-6A DEB","OBJECT_ID":"2024-140NC","EPOCH":"2026-03-09T01:19:44.598720","MEAN_MOTION":14.85954551,"ECCENTRICITY":0.01874643,"INCLINATION":89.0262,"RA_OF_ASC_NODE":281.6645,"ARG_OF_PERICENTER":160.2054,"MEAN_ANOMALY":200.6578,"EPHEMERIS_TYPE":0,"CLASSIFICATION_TYPE":"U","NORAD_CAT_ID":61086,"ELEMENT_SET_NO":999,"REV_AT_EPOCH":8276,"BSTAR":0.00091551765,"MEAN_MOTION_DOT":0.00011041,"MEAN_MOTION_DDOT":0}]
